Coordinates																			
version=1																			
nRows=10																			
nColumns=20																			
inDegrees=yes																			
																			
"Units are S.I. units (second, meters, Newtons, ...)"																			
"If the header above contains a line with inDegrees, this indicates whether rotational values are in degrees (yes) or radians (no)."																			
																			
endheader																			
time	TH_x	TH_y	TH_z	TH_transx	TH_transy	TH_transz	SC_y	SC_z	SC_x	AC_y	AC_z	AC_x	GH_y	GH_z	GH_yy	EL_x	PS_y	wrist_deviation	wrist_flexion
0	0	0	0	0	0	0	-33.486	2.145	32.914	45.571	0.458	-12.062	43.864	21.042	-34.659	5	5	0	0
0.01	0	0	0	0	0	0	-33.486	2.145	32.914	45.571	0.458	-12.062	43.864	21.042	-34.659	5	5	0	0
0.02	0	0	0	0	0	0	-33.486	2.145	32.914	45.571	0.458	-12.062	43.864	21.042	-34.659	5	5	0	0
0.03	0	0	0	0	0	0	-33.486	2.145	32.914	45.571	0.458	-12.062	43.864	21.042	-34.659	5	5	0	0
0.04	0	0	0	0	0	0	-33.486	2.145	32.914	45.571	0.458	-12.062	43.864	21.042	-34.659	5	5	0	0
0.05	0	0	0	0	0	0	-33.486	2.145	32.914	45.571	0.458	-12.062	43.864	21.042	-34.659	5	5	0	0
0.06	0	0	0	0	0	0	-33.486	2.145	32.914	45.571	0.458	-12.062	43.864	21.042	-34.659	5	5	0	0
0.07	0	0	0	0	0	0	-33.486	2.145	32.914	45.571	0.458	-12.062	43.864	21.042	-34.659	5	5	0	0
0.08	0	0	0	0	0	0	-33.486	2.145	32.914	45.571	0.458	-12.062	43.864	21.042	-34.659	5	5	0	0
0.09	0	0	0	0	0	0	-33.486	2.145	32.914	45.571	0.458	-12.062	43.864	21.042	-34.659	5	5	0	0
